start=new Date('2021-12-23T00:00:00.000Z').valueOf();
sats=[{"CENTER_NAME":"EARTH","TIME_SYSTEM":"UTC","LAUNCH_DATE":"2020-06-13","INCLINATION":"53.0551","MEAN_ELEMENT_THEORY":"SGP4","SITE":"AFETR","EPOCH":"2021-12-22T04:00:42.428736","DECAY_DATE":null,"REV_AT_EPOCH":"8485","OBJECT_TYPE":"PAYLOAD","ECCENTRICITY":"0.00022060","APOAPSIS":"548.763","TLE_LINE2":"2 45780  53.0551 263.3257 0002206  74.8385 285.2848 15.06392944 84853","MEAN_MOTION_DOT":"-0.00002023","OBJECT_NAME":"STARLINK-1496","SEMIMAJOR_AXIS":"6925.370","MEAN_MOTION":"15.06392944","NORAD_CAT_ID":"45780","PERIOD":"95.593","RA_OF_ASC_NODE":"263.3257","FILE":"3247523","CLASSIFICATION_TYPE":"U","COUNTRY_CODE":"US","MEAN_ANOMALY":"285.2848","PERIAPSIS":"545.707","ARG_OF_PERICENTER":"74.8385","EPHEMERIS_TYPE":"0","RCS_SIZE":"LARGE","ELEMENT_SET_NO":"999","OBJECT_ID":"2020-038BC","MEAN_MOTION_DDOT":"0.0000000000000","TLE_LINE1":"1 45780U 20038BC  21356.16715774 -.00002023  00000-0 -11696-3 0  9997","GP_ID":"192215990","BSTAR":"-0.00011696000000","REF_FRAME":"TEME"},{"OBJECT_NAME":"STARLINK-1497","SEMIMAJOR_AXIS":"6925.370","ECCENTRICITY":"0.00019660","OBJECT_TYPE":"PAYLOAD","REV_AT_EPOCH":"8490","MEAN_MOTION_DOT":"-0.00001107","TLE_LINE2":"2 45781  53.0543 262.0165 0001966  59.9059 300.2125 15.06392982 84907","APOAPSIS":"548.597","MEAN_ELEMENT_THEORY":"SGP4","DECAY_DATE":null,"EPOCH":"2021-12-22T11:00:01.306080","SITE":"AFETR","TIME_SYSTEM":"UTC","LAUNCH_DATE":"2020-06-13","CENTER_NAME":"EARTH","INCLINATION":"53.0543","BSTAR":"-0.00005543500000","GP_ID":"192217243","TLE_LINE1":"1 45781U 20038BD  21356.45834845 -.00001107  00000-0 -55435-4 0  9993","MEAN_MOTION_DDOT":"0.0000000000000","REF_FRAME":"TEME","RCS_SIZE":"LARGE","ARG_OF_PERICENTER":"59.9059","EPHEMERIS_TYPE":"0","PERIAPSIS":"545.874","OBJECT_ID":"2020-038BD","ELEMENT_SET_NO":"999","COUNTRY_CODE":"US","CLASSIFICATION_TYPE":"U","MEAN_ANOMALY":"300.2125","PERIOD":"95.593","NORAD_CAT_ID":"45781","MEAN_MOTION":"15.06392982","FILE":"3247523","RA_OF_ASC_NODE":"262.0165"},{"RCS_SIZE":"LARGE","ARG_OF_PERICENTER":"65.3454","EPHEMERIS_TYPE":"0","PERIAPSIS":"545.778","OBJECT_ID":"2020-038BE","ELEMENT_SET_NO":"999","BSTAR":"-0.00005266300000","GP_ID":"192223292","TLE_LINE1":"1 45782U 20038BE  21356.71636866 -.00001066  00000-0 -52663-4 0  9990","MEAN_MOTION_DDOT":"0.0000000000000","REF_FRAME":"TEME","PERIOD":"95.593","NORAD_CAT_ID":"45782","MEAN_MOTION":"15.06382288","FILE":"3247607","RA_OF_ASC_NODE":"260.8552","COUNTRY_CODE":"US","CLASSIFICATION_TYPE":"U","MEAN_ANOMALY":"294.7758","ECCENTRICITY":"0.00021510","OBJECT_TYPE":"PAYLOAD","REV_AT_EPOCH":"8587","MEAN_MOTION_DOT":"-0.00001066","TLE_LINE2":"2 45782  53.0548 260.8552 0002151  65.3454 294.7758 15.06382288 85870","APOAPSIS":"548.757","OBJECT_NAME":"STARLINK-1498","SEMIMAJOR_AXIS":"6925.403","TIME_SYSTEM":"UTC","LAUNCH_DATE":"2020-06-13","CENTER_NAME":"EARTH","INCLINATION":"53.0548","MEAN_ELEMENT_THEORY":"SGP4","DECAY_DATE":null,"EPOCH":"2021-12-22T17:11:34.252224","SITE":"AFETR"},{"OBJECT_NAME":"STARLINK-1505","SEMIMAJOR_AXIS":"6925.397","ECCENTRICITY":"0.00020130","OBJECT_TYPE":"PAYLOAD","REV_AT_EPOCH":"8491","MEAN_MOTION_DOT":"-0.00002377","APOAPSIS":"548.656","TLE_LINE2":"2 45783  53.0539 262.0131 0002013  64.7866 295.3332 15.06384146 84919","MEAN_ELEMENT_THEORY":"SGP4","EPOCH":"2021-12-22T10:54:43.352352","DECAY_DATE":null,"SITE":"AFETR","TIME_SYSTEM":"UTC","LAUNCH_DATE":"2020-06-13","CENTER_NAME":"EARTH","INCLINATION":"53.0539","GP_ID":"192215741","BSTAR":"-0.00014078000000","MEAN_MOTION_DDOT":"0.0000000000000","TLE_LINE1":"1 45783U 20038BF  21356.45466843 -.00002377  00000-0 -14078-3 0  9991","REF_FRAME":"TEME","RCS_SIZE":"LARGE","PERIAPSIS":"545.868","EPHEMERIS_TYPE":"0","ARG_OF_PERICENTER":"64.7866","OBJECT_ID":"2020-038BF","ELEMENT_SET_NO":"999","COUNTRY_CODE":"US","CLASSIFICATION_TYPE":"U","MEAN_ANOMALY":"295.3332","NORAD_CAT_ID":"45783","PERIOD":"95.593","MEAN_MOTION":"15.06384146","FILE":"3247523","RA_OF_ASC_NODE":"262.0131"},{"MEAN_MOTION_DOT":"-0.00001953","TLE_LINE2":"2 45784  53.0558 263.6410 0002278  72.6984 287.4254 15.06396953 84857","APOAPSIS":"548.800","OBJECT_TYPE":"PAYLOAD","ECCENTRICITY":"0.00022780","REV_AT_EPOCH":"8485","SEMIMAJOR_AXIS":"6925.358","OBJECT_NAME":"STARLINK-1510","INCLINATION":"53.0558","TIME_SYSTEM":"UTC","LAUNCH_DATE":"2020-06-13","CENTER_NAME":"EARTH","DECAY_DATE":null,"EPOCH":"2021-12-22T02:19:51.179232","SITE":"AFETR","MEAN_ELEMENT_THEORY":"SGP4","ELEMENT_SET_NO":"999","OBJECT_ID":"2020-038BG","RCS_SIZE":"LARGE","EPHEMERIS_TYPE":"0","ARG_OF_PERICENTER":"72.6984","PERIAPSIS":"545.645","REF_FRAME":"TEME","BSTAR":"-0.00011220000000","GP_ID":"192216491","TLE_LINE1":"1 45784U 20038BG  21356.09712013 -.00001953  00000-0 -11220-3 0  9990","MEAN_MOTION_DDOT":"0.0000000000000","FILE":"3247523","RA_OF_ASC_NODE":"263.6410","NORAD_CAT_ID":"45784","PERIOD":"95.592","MEAN_MOTION":"15.06396953","MEAN_ANOMALY":"287.4254","COUNTRY_CODE":"US","CLASSIFICATION_TYPE":"U"},{"OBJECT_NAME":"STARLINK-1512","SEMIMAJOR_AXIS":"6925.404","OBJECT_TYPE":"PAYLOAD","ECCENTRICITY":"0.00022820","REV_AT_EPOCH":"8491","MEAN_MOTION_DOT":"-0.00004793","APOAPSIS":"548.849","TLE_LINE2":"2 45785  53.0529 261.9259 0002282  68.1528 291.9704 15.06381990 84919","MEAN_ELEMENT_THEORY":"SGP4","EPOCH":"2021-12-22T11:26:34.038240","DECAY_DATE":null,"SITE":"AFETR","LAUNCH_DATE":"2020-06-13","TIME_SYSTEM":"UTC","CENTER_NAME":"EARTH","INCLINATION":"53.0529","GP_ID":"192216743","BSTAR":"-0.00030320000000","MEAN_MOTION_DDOT":"0.0000000000000","TLE_LINE1":"1 45785U 20038BH  21356.47678285 -.00004793  00000-0 -30320-3 0  9992","REF_FRAME":"TEME","RCS_SIZE":"LARGE","PERIAPSIS":"545.688","ARG_OF_PERICENTER":"68.1528","EPHEMERIS_TYPE":"0","ELEMENT_SET_NO":"999","OBJECT_ID":"2020-038BH","COUNTRY_CODE":"US","CLASSIFICATION_TYPE":"U","MEAN_ANOMALY":"291.9704","PERIOD":"95.593","NORAD_CAT_ID":"45785","MEAN_MOTION":"15.06381990","FILE":"3247523","RA_OF_ASC_NODE":"261.9259"},{"CLASSIFICATION_TYPE":"U","COUNTRY_CODE":"US","MEAN_ANOMALY":"291.2073","MEAN_MOTION":"15.06400233","NORAD_CAT_ID":"45786","PERIOD":"95.592","RA_OF_ASC_NODE":"260.7952","FILE":"3247609","TLE_LINE1":"1 45786U 20038BJ  21356.72741628 -.00000289  00000-0 -47827-6 0  9992","MEAN_MOTION_DDOT":"0.0000000000000","BSTAR":"-0.00000047827000","GP_ID":"192223319","REF_FRAME":"TEME","ARG_OF_PERICENTER":"68.9131","EPHEMERIS_TYPE":"0","PERIAPSIS":"545.822","RCS_SIZE":"LARGE","ELEMENT_SET_NO":"999","OBJECT_ID":"2020-038BJ","MEAN_ELEMENT_THEORY":"SGP4","SITE":"AFETR","DECAY_DATE":null,"EPOCH":"2021-12-22T17:27:28.766592","CENTER_NAME":"EARTH","LAUNCH_DATE":"2020-06-13","TIME_SYSTEM":"UTC","INCLINATION":"53.0536","OBJECT_NAME":"STARLINK-1513","SEMIMAJOR_AXIS":"6925.348","REV_AT_EPOCH":"8587","OBJECT_TYPE":"PAYLOAD","ECCENTRICITY":"0.00020090","TLE_LINE2":"2 45786  53.0536 260.7952 0002009  68.9131 291.2073 15.06400233 85870","APOAPSIS":"548.604","MEAN_MOTION_DOT":"-0.00000289"},{"MEAN_ELEMENT_THEORY":"SGP4","SITE":"AFETR","DECAY_DATE":null,"EPOCH":"2021-12-22T12:51:28.758528","CENTER_NAME":"EARTH","TIME_SYSTEM":"UTC","LAUNCH_DATE":"2020-06-13","INCLINATION":"53.0539","OBJECT_NAME":"STARLINK-1517","SEMIMAJOR_AXIS":"6925.397","REV_AT_EPOCH":"8492","ECCENTRICITY":"0.00021480","OBJECT_TYPE":"PAYLOAD","TLE_LINE2":"2 45787  53.0539 261.6658 0002148  65.2972 294.8241 15.06384078 84923","APOAPSIS":"548.750","MEAN_MOTION_DOT":"-0.00003079","CLASSIFICATION_TYPE":"U","COUNTRY_CODE":"US","MEAN_ANOMALY":"294.8241","MEAN_MOTION":"15.06384078","NORAD_CAT_ID":"45787","PERIOD":"95.593","RA_OF_ASC_NODE":"261.6658","FILE":"3247523","TLE_LINE1":"1 45787U 20038BK  21356.53574952 -.00003079  00000-0 -18797-3 0  9997","MEAN_MOTION_DDOT":"0.0000000000000","BSTAR":"-0.00018797000000","GP_ID":"192216242","REF_FRAME":"TEME","EPHEMERIS_TYPE":"0","ARG_OF_PERICENTER":"65.2972","PERIAPSIS":"545.775","RCS_SIZE":"LARGE","OBJECT_ID":"2020-038BK","ELEMENT_SET_NO":"999"},{"OBJECT_ID":"2020-055A","ELEMENT_SET_NO":"999","ARG_OF_PERICENTER":"81.8561","EPHEMERIS_TYPE":"0","PERIAPSIS":"545.480","RCS_SIZE":"LARGE","REF_FRAME":"TEME","TLE_LINE1":"1 46027U 20055A   21356.77441632  .00001401  00000-0  11295-3 0  9999","MEAN_MOTION_DDOT":"0.0000000000000","BSTAR":"0.00011295000000","GP_ID":"192223083","RA_OF_ASC_NODE":"190.5938","FILE":"3247627","MEAN_MOTION":"15.06401706","PERIOD":"95.592","NORAD_CAT_ID":"46027","MEAN_ANOMALY":"278.2711","CLASSIFICATION_TYPE":"U","COUNTRY_CODE":"US","TLE_LINE2":"2 46027  53.0511 190.5938 0002495  81.8561 278.2711 15.06401706 76573","APOAPSIS":"548.936","MEAN_MOTION_DOT":"0.00001401","REV_AT_EPOCH":"7657","ECCENTRICITY":"0.00024950","OBJECT_TYPE":"PAYLOAD","SEMIMAJOR_AXIS":"6925.343","OBJECT_NAME":"STARLINK-1522","INCLINATION":"53.0511","CENTER_NAME":"EARTH","LAUNCH_DATE":"2020-08-07","TIME_SYSTEM":"UTC","SITE":"AFETR","DECAY_DATE":null,"EPOCH":"2021-12-22T18:35:09.570048","MEAN_ELEMENT_THEORY":"SGP4"},{"TIME_SYSTEM":"UTC","LAUNCH_DATE":"2020-08-07","CENTER_NAME":"EARTH","INCLINATION":"53.0528","MEAN_ELEMENT_THEORY":"SGP4","EPOCH":"2021-12-21T23:49:56.000928","DECAY_DATE":null,"SITE":"AFETR","ECCENTRICITY":"0.00025830","OBJECT_TYPE":"PAYLOAD","REV_AT_EPOCH":"7698","MEAN_MOTION_DOT":"0.00000081","APOAPSIS":"549.022","TLE_LINE2":"2 46028  53.0528 194.0952 0002583  83.1671 276.9611 15.06393438 76983","OBJECT_NAME":"STARLINK-1523","SEMIMAJOR_AXIS":"6925.369","NORAD_CAT_ID":"46028","PERIOD":"95.593","MEAN_MOTION":"15.06393438","FILE":"3247523","RA_OF_ASC_NODE":"194.0952","COUNTRY_CODE":"US","CLASSIFICATION_TYPE":"U","MEAN_ANOMALY":"276.9611","RCS_SIZE":"LARGE","PERIAPSIS":"545.445","ARG_OF_PERICENTER":"83.1671","EPHEMERIS_TYPE":"0","ELEMENT_SET_NO":"999","OBJECT_ID":"2020-055B","GP_ID":"192216267","BSTAR":"0.00002438000000","MEAN_MOTION_DDOT":"0.0000000000000","TLE_LINE1":"1 46028U 20055B   21355.99300927  .00000081  00000-0  24380-4 0  9997","REF_FRAME":"TEME"}];
